{
"type": "FeatureCollection",
"name": "origin_record_(origins)",
"crs": { "type": "name", "properties": { "name": "urn:ogc:def:crs:EPSG::3857" } },
"features": [
{ "type": "Feature", "properties": { "id": 0, "weight": 1.0, "expo_source_layer": "origins", "expo_type": "origin", "expo_weight": 1.0, "expo_degree": 0, "expo_color": [ 86, 5, 255 ], "expo_nearest_edge_id": 0, "expo_edge_start_node": 1, "expo_weight_to_start": 50.0, "expo_edge_end_node": 0, "expo_weight_to_end": 50.0, "expo_chunck_time": [ 0.0007946491241455078 ], "expo_chunck_path_count": [ 2 ], "expo_chunck_path_segment_count": [ 6 ], "expo_chunck_path_segment_memory": [ 160 ], "expo_chunk_scope_node_count": "5", "reach_expo": 2.0, "gravity_expo": 1.097623272188053, "expo_mean_hazzard": 0.725, "expo_decayed_mean_hazzad": 0.725, "exposure_expo": 145.0, "expo_probable_travel_distance_weighted_hazzard": 145.0, "expo_closest_destination_distance": 200.0, "expo_furthest_destination_distance": 200.0, "expo_mean_path_length": 200.0, "expo_probable_travel_distance": 200.0, "expo_eligible_destinations": 2.0, "expo_path_count": 2.0, "expo_path_segment_count": 6.0, "expo_path_segment_memory": 160.0, "expo_scope_node_count": 5.0, "expo_destination_discovery_time": 0.0016567707061767578, "expo_destination_prep_time": 0.0001506805419921875, "expo_path_generation_time": 0.00079464912414550781, "expo_chunck_count": 1.0, "expo_memory_stalls": 0.0 }, "geometry": { "type": "Point", "coordinates": [ -50.0, 0.0 ] } },
{ "type": "Feature", "properties": { "id": 1, "weight": 2.0, "expo_source_layer": "origins", "expo_type": "origin", "expo_weight": 1.0, "expo_degree": 0, "expo_color": [ 86, 5, 255 ], "expo_nearest_edge_id": 1, "expo_edge_start_node": 0, "expo_weight_to_start": 50.0, "expo_edge_end_node": 2, "expo_weight_to_end": 50.0, "expo_chunck_time": [ 0.0010724067687988281 ], "expo_chunck_path_count": [ 3 ], "expo_chunck_path_segment_count": [ 9 ], "expo_chunck_path_segment_memory": [ 240 ], "expo_chunk_scope_node_count": "7", "reach_expo": 2.0, "gravity_expo": 1.097623272188053, "expo_mean_hazzard": 1.1333333333333333, "expo_decayed_mean_hazzad": 1.1333333333333333, "exposure_expo": 226.66666666666666, "expo_probable_travel_distance_weighted_hazzard": 226.66666666666666, "expo_closest_destination_distance": 200.0, "expo_furthest_destination_distance": 200.0, "expo_mean_path_length": 200.0, "expo_probable_travel_distance": 200.0, "expo_eligible_destinations": 2.0, "expo_path_count": 3.0, "expo_path_segment_count": 9.0, "expo_path_segment_memory": 240.0, "expo_scope_node_count": 7.0, "expo_destination_discovery_time": 0.0017464160919189453, "expo_destination_prep_time": 0.00016903877258300781, "expo_path_generation_time": 0.0010724067687988281, "expo_chunck_count": 1.0, "expo_memory_stalls": 0.0 }, "geometry": { "type": "Point", "coordinates": [ 50.0, 0.0 ] } },
{ "type": "Feature", "properties": { "id": 2, "weight": 1.0, "expo_source_layer": "origins", "expo_type": "origin", "expo_weight": 1.0, "expo_degree": 0, "expo_color": [ 86, 5, 255 ], "expo_nearest_edge_id": 2, "expo_edge_start_node": 2, "expo_weight_to_start": 50.0, "expo_edge_end_node": 3, "expo_weight_to_end": 50.0, "expo_chunck_time": [ 0.0012531280517578125 ], "expo_chunck_path_count": [ 2 ], "expo_chunck_path_segment_count": [ 5 ], "expo_chunck_path_segment_memory": [ 152 ], "expo_chunk_scope_node_count": "5", "reach_expo": 2.0, "gravity_expo": 1.2896298567757445, "expo_mean_hazzard": 1.3936106292029149, "expo_decayed_mean_hazzad": 1.3936106292029149, "exposure_expo": 192.55574831883411, "expo_probable_travel_distance_weighted_hazzard": 192.55574831883411, "expo_closest_destination_distance": 100.0, "expo_furthest_destination_distance": 200.0, "expo_mean_path_length": 142.55574831883411, "expo_probable_travel_distance": 142.55574831883411, "expo_eligible_destinations": 2.0, "expo_path_count": 2.0, "expo_path_segment_count": 5.0, "expo_path_segment_memory": 152.0, "expo_scope_node_count": 5.0, "expo_destination_discovery_time": 0.0019786357879638672, "expo_destination_prep_time": 0.00021886825561523438, "expo_path_generation_time": 0.0012531280517578125, "expo_chunck_count": 1.0, "expo_memory_stalls": 0.0 }, "geometry": { "type": "Point", "coordinates": [ 100.0, 50.0 ] } }
]
}
