{
"type": "FeatureCollection",
"name": "origins",
"crs": { "type": "name", "properties": { "name": "urn:ogc:def:crs:EPSG::3857" } },
"features": [
{ "type": "Feature", "properties": { "weight": 1.0 }, "geometry": { "type": "Point", "coordinates": [ -50.0, 0.0 ] } },
{ "type": "Feature", "properties": { "weight": 2.0 }, "geometry": { "type": "Point", "coordinates": [ 50.0, 0.0 ] } },
{ "type": "Feature", "properties": { "weight": 1.0 }, "geometry": { "type": "Point", "coordinates": [ 100.0, 50.0 ] } }
]
}
