{
"type": "FeatureCollection",
"name": "origin_record_(origins)",
"crs": { "type": "name", "properties": { "name": "urn:ogc:def:crs:EPSG::3857" } },
"features": [
{ "type": "Feature", "properties": { "id": 0, "weight": 1.0, "huff_flow_source_layer": "origins", "huff_flow_type": "origin", "huff_flow_weight": 1.0, "huff_flow_degree": 0, "huff_flow_color": [ 86, 5, 255 ], "huff_flow_nearest_edge_id": 0, "huff_flow_edge_start_node": 1, "huff_flow_weight_to_start": 50.0, "huff_flow_edge_end_node": 0, "huff_flow_weight_to_end": 50.0, "huff_flow_chunck_time": null, "huff_flow_chunck_path_count": null, "huff_flow_chunck_path_segment_count": null, "huff_flow_chunck_path_segment_memory": null, "huff_flow_chunk_scope_node_count": null, "reach_huff_flow": 2.0, "gravity_huff_flow": 1.097623272188053 }, "geometry": { "type": "Point", "coordinates": [ -50.0, 0.0 ] } },
{ "type": "Feature", "properties": { "id": 1, "weight": 2.0, "huff_flow_source_layer": "origins", "huff_flow_type": "origin", "huff_flow_weight": 1.0, "huff_flow_degree": 0, "huff_flow_color": [ 86, 5, 255 ], "huff_flow_nearest_edge_id": 1, "huff_flow_edge_start_node": 0, "huff_flow_weight_to_start": 50.0, "huff_flow_edge_end_node": 2, "huff_flow_weight_to_end": 50.0, "huff_flow_chunck_time": null, "huff_flow_chunck_path_count": null, "huff_flow_chunck_path_segment_count": null, "huff_flow_chunck_path_segment_memory": null, "huff_flow_chunk_scope_node_count": null, "reach_huff_flow": 2.0, "gravity_huff_flow": 1.097623272188053 }, "geometry": { "type": "Point", "coordinates": [ 50.0, 0.0 ] } },
{ "type": "Feature", "properties": { "id": 2, "weight": 1.0, "huff_flow_source_layer": "origins", "huff_flow_type": "origin", "huff_flow_weight": 1.0, "huff_flow_degree": 0, "huff_flow_color": [ 86, 5, 255 ], "huff_flow_nearest_edge_id": 2, "huff_flow_edge_start_node": 2, "huff_flow_weight_to_start": 50.0, "huff_flow_edge_end_node": 3, "huff_flow_weight_to_end": 50.0, "huff_flow_chunck_time": null, "huff_flow_chunck_path_count": null, "huff_flow_chunck_path_segment_count": null, "huff_flow_chunck_path_segment_memory": null, "huff_flow_chunk_scope_node_count": null, "reach_huff_flow": 2.0, "gravity_huff_flow": 1.2896298567757445 }, "geometry": { "type": "Point", "coordinates": [ 100.0, 50.0 ] } }
]
}
