{
"type": "FeatureCollection",
"name": "origin_record_(origins)",
"crs": { "type": "name", "properties": { "name": "urn:ogc:def:crs:EPSG::3857" } },
"features": [
{ "type": "Feature", "properties": { "id": 0, "weight": 1.0, "geo_leg_source_layer": "origins", "geo_leg_type": "origin", "geo_leg_weight": 1.0, "geo_leg_degree": 0, "geo_leg_color": [ 86, 5, 255 ], "geo_leg_nearest_edge_id": 0, "geo_leg_edge_start_node": 1, "geo_leg_weight_to_start": 50.0, "geo_leg_edge_end_node": 0, "geo_leg_weight_to_end": 50.0, "geo_leg_chunck_time": null, "geo_leg_chunck_path_count": null, "geo_leg_chunck_path_segment_count": null, "geo_leg_chunck_path_segment_memory": null, "geo_leg_chunk_scope_node_count": null, "reach_geo_leg": 2.0, "gravity_geo_leg": 1.097623272188053 }, "geometry": { "type": "Point", "coordinates": [ -50.0, 0.0 ] } },
{ "type": "Feature", "properties": { "id": 1, "weight": 2.0, "geo_leg_source_layer": "origins", "geo_leg_type": "origin", "geo_leg_weight": 1.0, "geo_leg_degree": 0, "geo_leg_color": [ 86, 5, 255 ], "geo_leg_nearest_edge_id": 1, "geo_leg_edge_start_node": 0, "geo_leg_weight_to_start": 50.0, "geo_leg_edge_end_node": 2, "geo_leg_weight_to_end": 50.0, "geo_leg_chunck_time": null, "geo_leg_chunck_path_count": null, "geo_leg_chunck_path_segment_count": null, "geo_leg_chunck_path_segment_memory": null, "geo_leg_chunk_scope_node_count": null, "reach_geo_leg": 2.0, "gravity_geo_leg": 1.097623272188053 }, "geometry": { "type": "Point", "coordinates": [ 50.0, 0.0 ] } },
{ "type": "Feature", "properties": { "id": 2, "weight": 1.0, "geo_leg_source_layer": "origins", "geo_leg_type": "origin", "geo_leg_weight": 1.0, "geo_leg_degree": 0, "geo_leg_color": [ 86, 5, 255 ], "geo_leg_nearest_edge_id": 2, "geo_leg_edge_start_node": 2, "geo_leg_weight_to_start": 50.0, "geo_leg_edge_end_node": 3, "geo_leg_weight_to_end": 50.0, "geo_leg_chunck_time": null, "geo_leg_chunck_path_count": null, "geo_leg_chunck_path_segment_count": null, "geo_leg_chunck_path_segment_memory": null, "geo_leg_chunk_scope_node_count": null, "reach_geo_leg": 2.0, "gravity_geo_leg": 1.2896298567757445 }, "geometry": { "type": "Point", "coordinates": [ 100.0, 50.0 ] } }
]
}
