{
"type": "FeatureCollection",
"name": "origin_record_(origins)",
"crs": { "type": "name", "properties": { "name": "urn:ogc:def:crs:EPSG::3857" } },
"features": [
{ "type": "Feature", "properties": { "id": 0, "weight": 1.0, "elastic_huff_source_layer": "origins", "elastic_huff_type": "origin", "elastic_huff_weight": 1.0, "elastic_huff_degree": 0, "elastic_huff_color": [ 86, 5, 255 ], "elastic_huff_nearest_edge_id": 0, "elastic_huff_edge_start_node": 1, "elastic_huff_weight_to_start": 50.0, "elastic_huff_edge_end_node": 0, "elastic_huff_weight_to_end": 50.0, "elastic_huff_chunck_time": [ 0.000274658203125 ], "elastic_huff_chunck_path_count": [ 2 ], "elastic_huff_chunck_path_segment_count": [ 6 ], "elastic_huff_chunck_path_segment_memory": [ 160 ], "elastic_huff_chunk_scope_node_count": "5", "elastic_weight_elastic_huff": 0.5488116360940265, "elastic_huff_knn_access": 0.5488116360940265, "reach_elastic_huff": 2.0, "gravity_elastic_huff": 1.097623272188053, "elastic_huff_closest_destination_distance": 200.0, "elastic_huff_furthest_destination_distance": 200.0, "elastic_huff_mean_path_length": 200.0, "elastic_huff_probable_travel_distance": 109.7623272188053, "elastic_huff_eligible_destinations": 2.0, "elastic_huff_path_count": 2.0, "elastic_huff_path_segment_count": 6.0, "elastic_huff_path_segment_memory": 160.0, "elastic_huff_scope_node_count": 5.0, "elastic_huff_destination_discovery_time": 0.0016579627990722656, "elastic_huff_destination_prep_time": 0.0016996860504150391, "elastic_huff_path_generation_time": 0.000274658203125, "elastic_huff_chunck_count": 1.0, "elastic_huff_memory_stalls": 0.0 }, "geometry": { "type": "Point", "coordinates": [ -50.0, 0.0 ] } },
{ "type": "Feature", "properties": { "id": 1, "weight": 2.0, "elastic_huff_source_layer": "origins", "elastic_huff_type": "origin", "elastic_huff_weight": 1.0, "elastic_huff_degree": 0, "elastic_huff_color": [ 86, 5, 255 ], "elastic_huff_nearest_edge_id": 1, "elastic_huff_edge_start_node": 0, "elastic_huff_weight_to_start": 50.0, "elastic_huff_edge_end_node": 2, "elastic_huff_weight_to_end": 50.0, "elastic_huff_chunck_time": [ 0.00033545494079589844 ], "elastic_huff_chunck_path_count": [ 3 ], "elastic_huff_chunck_path_segment_count": [ 9 ], "elastic_huff_chunck_path_segment_memory": [ 240 ], "elastic_huff_chunk_scope_node_count": "7", "elastic_weight_elastic_huff": 0.5488116360940265, "elastic_huff_knn_access": 0.5488116360940265, "reach_elastic_huff": 2.0, "gravity_elastic_huff": 1.097623272188053, "elastic_huff_closest_destination_distance": 200.0, "elastic_huff_furthest_destination_distance": 200.0, "elastic_huff_mean_path_length": 200.0, "elastic_huff_probable_travel_distance": 109.7623272188053, "elastic_huff_eligible_destinations": 2.0, "elastic_huff_path_count": 3.0, "elastic_huff_path_segment_count": 9.0, "elastic_huff_path_segment_memory": 240.0, "elastic_huff_scope_node_count": 7.0, "elastic_huff_destination_discovery_time": 0.0017154216766357422, "elastic_huff_destination_prep_time": 0.0017118453979492188, "elastic_huff_path_generation_time": 0.00033545494079589844, "elastic_huff_chunck_count": 1.0, "elastic_huff_memory_stalls": 0.0 }, "geometry": { "type": "Point", "coordinates": [ 50.0, 0.0 ] } },
{ "type": "Feature", "properties": { "id": 2, "weight": 1.0, "elastic_huff_source_layer": "origins", "elastic_huff_type": "origin", "elastic_huff_weight": 1.0, "elastic_huff_degree": 0, "elastic_huff_color": [ 86, 5, 255 ], "elastic_huff_nearest_edge_id": 2, "elastic_huff_edge_start_node": 2, "elastic_huff_weight_to_start": 50.0, "elastic_huff_edge_end_node": 3, "elastic_huff_weight_to_end": 50.0, "elastic_huff_chunck_time": [ 0.0005633831024169922 ], "elastic_huff_chunck_path_count": [ 2 ], "elastic_huff_chunck_path_segment_count": [ 5 ], "elastic_huff_chunck_path_segment_memory": [ 152 ], "elastic_huff_chunk_scope_node_count": "5", "elastic_weight_elastic_huff": 0.64481492838787224, "elastic_huff_knn_access": 0.64481492838787224, "reach_elastic_huff": 2.0, "gravity_elastic_huff": 1.2896298567757445, "elastic_huff_closest_destination_distance": 100.0, "elastic_huff_furthest_destination_distance": 200.0, "elastic_huff_mean_path_length": 142.55574831883411, "elastic_huff_probable_travel_distance": 105.6078958175095, "elastic_huff_eligible_destinations": 2.0, "elastic_huff_path_count": 2.0, "elastic_huff_path_segment_count": 5.0, "elastic_huff_path_segment_memory": 152.0, "elastic_huff_scope_node_count": 5.0, "elastic_huff_destination_discovery_time": 0.0019762516021728516, "elastic_huff_destination_prep_time": 0.0047605037689208984, "elastic_huff_path_generation_time": 0.00056338310241699219, "elastic_huff_chunck_count": 1.0, "elastic_huff_memory_stalls": 0.0 }, "geometry": { "type": "Point", "coordinates": [ 100.0, 50.0 ] } }
]
}
